[{"OBJECT_NAME":"STARLINK-5082","OBJECT_ID":"2022-177AB","EPOCH":"2026-03-09T22:00:01.999584","MEAN_MOTION":15.19625958,"ECCENTRICITY":0.00018811,"INCLINATION":43.0011,"RA_OF_ASC_NODE":130.8926,"ARG_OF_PERICENTER":279.8198,"MEAN_ANOMALY":76.1776,"EPHEMERIS_TYPE":0,"CLASSIFICATION_TYPE":"U","NORAD_CAT_ID":54845,"ELEMENT_SET_NO":999,"REV_AT_EPOCH":573,"BSTAR":0.051218769,"MEAN_MOTION_DOT":0.01214193,"MEAN_MOTION_DDOT":0},{"OBJECT_NAME":"THORAD AGENA D DEB","OBJECT_ID":"1969-082CP","EPOCH":"2026-03-09T22:51:31.947840","MEAN_MOTION":15.31252047,"ECCENTRICITY":0.00108961,"INCLINATION":69.8927,"RA_OF_ASC_NODE":265.8646,"ARG_OF_PERICENTER":335.0972,"MEAN_ANOMALY":24.9676,"EPHEMERIS_TYPE":0,"CLASSIFICATION_TYPE":"U","NORAD_CAT_ID":4133,"ELEMENT_SET_NO":999,"REV_AT_EPOCH":97550,"BSTAR":0.0018489552,"MEAN_MOTION_DOT":0.00056347,"MEAN_MOTION_DDOT":0}]
